ZHOU ENLAI              
1 43156U 18008B   21045.89236583  .00000445  00000-0  29786-4 0  9991
2 43156  97.4230 114.3101 0015427  37.6031  80.1725 15.11697050169493
QUANTUTONG 1            
1 43158U 18008D   21045.66358214  .00001024  00000-0  64603-4 0  9995
2 43158  97.4180 112.8325 0014593  35.9408 115.1075 15.11174356169397
S-NET D                 
1 43186U 18014G   21045.50257287  .00000526  00000-0  50680-4 0  9990
2 43186  97.6861 315.2523 0012251 127.8775 232.3557 14.96970790165900
S-NET B                 
1 43187U 18014H   21045.70298074  .00000504  00000-0  48835-4 0  9997
2 43187  97.6859 315.4201 0012252 127.1792 233.0551 14.96970607165938
S-NET A                 
1 43188U 18014J   21045.63608769  .00000522  00000-0  50342-4 0  9992
2 43188  97.6862 315.3937 0012261 127.4410 232.7930 14.96969154165929
S-NET C                 
1 43189U 18014K   21045.90394690  .00000421  00000-0  41563-4 0  9991
2 43189  97.6857 315.6112 0012240 126.5098 233.7253 14.96969682164510
FENGMANIU-1 (FMN-1)     
1 43192U 18015A   21045.86220329  .00002292  00000-0  89025-4 0  9991
2 43192  97.4688 180.8643 0013926 319.2142 192.0423 15.27037591168877
SHAONIAN XING           
1 43199U 18015H   21045.91502456  .00001578  00000-0  62547-4 0  9994
2 43199  97.4482 178.5020 0015128 329.4089 149.3211 15.26817761168940
LUOJIA-1 01             
1 43485U 18048B   21045.90045660  .00000110  00000-0  23072-4 0  9997
2 43485  97.9712 129.2023 0010591 339.0004  21.0759 14.76790809145909
RADSAT-G                
1 43553U 98067PB  21045.51054848  .00086479  13868-4  29014-3 0  9990
2 43553  51.6362 129.6033 0005359 323.9769  36.0875 15.90139884148336
SURFSAT                 
1 43614U 18070B   21045.66189047  .00003325  00000-0  80692-4 0  9999
2 43614  93.0229 254.9858 0016876 115.5209 244.7793 15.40944598135753
CP7 (DAVE)              
1 43615U 18070C   21045.85270884  .00002812  00000-0  68797-4 0  9993
2 43615  93.0233 255.0360 0017087 114.8151 245.4884 15.40700722135772
ELFIN-B                 
1 43616U 18070D   21045.56036290  .00005604  00000-0  12718-3 0  9996
2 43616  93.0189 254.9798 0017028 115.1140 245.1886 15.42918947135819
ELFIN-A                 
1 43617U 18070E   21045.81201074  .00005401  00000-0  12121-3 0  9992
2 43617  93.0243 255.8143 0016443 111.3818 248.9195 15.43267526135865
1998-067PP              
1 43639U 98067PP  21045.61063543  .00167125  22135-4  41124-3 0  9999
2 43639  51.6260 133.6803 0005216 331.4551  28.6170 15.95679302135018
STARS-ME                
1 43640U 98067PQ  21045.69012188  .00040208  00000-0  23281-3 0  9997
2 43640  51.6310 150.8854 0002938 259.5920 100.4750 15.78158359134793
CZ-4B R/B               
1 43656U 18081B   21045.65093453  .00000001  00000-0  17134-4 0  9990
2 43656  99.3648 136.4684 0209418 106.0239 256.4115 14.30454475120613
CUBEBEL-1 (BSUSAT-1)    
1 43666U 18083E   21045.92956568  .00001156  00000-0  58593-4 0  9994
2 43666  97.4695  75.7855 0013434 231.3024 224.9200 15.18908207127419
CHANGSHAGAOXIN (TY 4-01)
1 43669U 18083H   21045.82600369  .00000553  00000-0  30691-4 0  9990
2 43669  97.4581  73.1329 0009561 224.3051 241.3821 15.17788154127285
TEN-KOH                 
1 43677U 18084G   21045.79851399  .00000144  00000-0  20627-4 0  9991
2 43677  97.9034 168.6617 0017425  80.4493 279.8693 14.90400035125034
DIWATA-2B               
1 43678U 18084H   21045.76893550  .00000179  00000-0  23517-4 0  9993
2 43678  97.9058 170.5597 0011444  95.7562 264.4976 14.91706848125149
STARS-AO                
1 43679U 18084J   21045.80581403  .00000251  00000-0  30183-4 0  9998
2 43679  97.9101 171.6220 0010575 102.5365 257.7037 14.92401230125192
AUTCUBE 2               
1 43681U 18084K   21045.80141503  .00000148  00000-0  20268-4 0  9992
2 43681  97.9068 170.8590 0010928  96.7719 263.4743 14.91996721125121
IRVINE01                
1 43693U 18088D   21045.59113710  .00002891  00000-0  11552-3 0  9996
2 43693  85.0320 276.5559 0018804 115.2488 245.0707 15.24480544125712
ES'HAIL 2               
1 43700U 18090A   21045.89530991  .00000135  00000-0  00000-0 0  9997
2 43700   0.0169 112.4950 0001953 250.4625 130.2399  1.00270909  8144
FACSAT-1                
1 43721U 18096C   21045.85209627  .00001495  00000-0  56909-4 0  9994
2 43721  97.3977 123.9230 0016583 351.6976 115.5353 15.28217908123395
CENTAURI-2              
1 43722U 18096D   21045.68770428  .00002351  00000-0  85672-4 0  9999
2 43722  97.3984 124.3308 0016351 351.0897   9.0050 15.29084830123392
3CAT-1                  
1 43728U 18096K   21045.84986602  .00001992  00000-0  72332-4 0  9995
2 43728  97.3998 124.9925 0016439 355.0590  70.1601 15.29387980123444
INNOSAT-2               
1 43738U 18096V   21045.75212230  .00002895  00000-0  95123-4 0  9991
2 43738  97.4036 127.4799 0021567 352.9350 129.7880 15.32176091123605
REAKTOR HELLO WORLD     
1 43743U 18096AA  21045.63848933  .00001318  00000-0  50477-4 0  9991
2 43743  97.3973 124.0753 0017183 357.2723   2.8420 15.28237658123371
ELYSIUM STAR 2 & LFF    
1 43760U 18099C   21045.67296429  .00000647  00000-0  62601-4 0  9990
2 43760  97.6837 119.3556 0015335 100.3236 259.9719 14.96057752120151
2018-099D               
1 43761U 18099D   21045.68504558  .00000624  00000-0  61772-4 0  9990
2 43761  97.6809 118.9268 0016251 101.4781 258.8274 14.95237401120122
AISTECHSAT 2            
1 43768U 18099L   21045.87580418  .00000591  00000-0  59387-4 0  9999
2 43768  97.6767 118.1538 0013045  98.8703 261.3995 14.94816758119837
FOX-1CLIFF (AO-95)      
1 43770U 18099N   21045.92054539  .00000082  00000-0  12655-4 0  9990
2 43770  97.6790 118.7440 0015938 106.5542 253.7431 14.95193458120147
RANGE-A                 
1 43772U 18099Q   21045.63758262  .00000116  00000-0  15662-4 0  9993
2 43772  97.6873 119.2803 0015619  95.4501 264.8502 14.95458156120104
RANGE-B                 
1 43773U 18099R   21045.44996032 -.00000055  00000-0  19838-6 0  9996
2 43773  97.6729 117.7236 0014972  96.0894 264.2033 14.95119331120068
2018-099T               
1 43775U 18099T   21045.92583085  .00000116  00000-0  15744-4 0  9998
2 43775  97.6793 118.9570 0016081  98.4339 261.8706 14.95201198120140
MOVE-II                 
1 43780U 18099Y   21045.92858519  .00000493  00000-0  49348-4 0  9996
2 43780  97.6801 119.1556 0014887 104.3646 255.9229 14.95722236120159
SNUSAT-2                
1 43782U 18099AA  21045.43809523 -.00000131  00000-0 -66488-5 0  9991
2 43782  97.6792 118.5696 0014234  95.0383 265.2463 14.95447197120084
SNUGLITE                
1 43784U 18099AC  21045.92471385  .00000211  00000-0  24111-4 0  9991
2 43784  97.6752 118.8054 0016487 101.2168 259.0908 14.95558377120174
ITASAT 1                
1 43786U 18099AE  21045.93141583  .00000352  00000-0  36838-4 0  9993
2 43786  97.6807 119.3471 0016642 100.5158 259.7939 14.95504531120174
KAZSCISAT-1             
1 43787U 18099AF  21045.89056838  .00000560  00000-0  55079-4 0  9996
2 43787  97.6723 118.5458 0015779  97.9017 262.3996 14.95916219120185
EAGLET-I                
1 43790U 18099AJ  21045.92878925  .00000243  00000-0  26772-4 0  9999
2 43790  97.6796 119.7060 0014877 104.1788 256.1087 14.95882600119899
ESEO                    
1 43792U 18099AL  21045.82925496  .00000058  00000-0  10290-4 0  9998
2 43792  97.6770 119.2914 0014881 100.8022 259.4875 14.95689628119936
CSIM-FD                 
1 43793U 18099AM  21045.65005472  .00000082  00000-0  12325-4 0  9991
2 43793  97.6784 119.3193 0014279  99.6629 260.6206 14.96378148119903
ASTROCAST 0.1           
1 43798U 18099AS  21045.42521906  .00000478  00000-0  47653-4 0  9997
2 43798  97.6805 119.3669 0014056  86.9546 273.3283 14.96035049120122
JY1SAT (JO-97)          
1 43803U 18099AX  21045.64679061 -.00000076  00000-0 -17155-5 0  9995
2 43803  97.6771 118.8371 0016486 101.1350 259.1725 14.95725128120134
SUOMI-100               
1 43804U 18099AY  21045.65016900 -.00000026  00000-0  27826-5 0  9994
2 43804  97.6767 118.8161 0016586 101.3114 258.9972 14.95702470120145
AL-FARABI 2             
1 43805U 18099AZ  21045.73468230  .00000393  00000-0  40201-4 0  9998
2 43805  97.6779 119.0648 0016602 101.9249 258.3844 14.95881067120160
CENTAURI-1              
1 43809U 18099BD  21045.93067233  .00000290  00000-0  31146-4 0  9996
2 43809  97.6779 119.3715 0016639 101.6212 258.6878 14.95732020119880
PW-SAT2                 
1 43814U 18099BJ  21045.89227965  .00471080  00000-0  47787-2 0  9992
2 43814  97.7787 142.3258 0010307 284.6854  75.3261 15.63680376120664
CHOMPTT                 
1 43855U 18104G   21045.84841277  .00001244  00000-0  50188-4 0  9999
2 43855  85.0385  14.7428 0015145 234.4141 125.5691 15.23584926120420
DAVINCI                 
1 43857U 18104J   21045.54396556  .00003219  00000-0  12967-3 0  9999
2 43857  85.0341  14.9512 0012385 265.5697  94.4132 15.24368743120358
UWE-4                   
1 43880U 18111E   21045.71266606  .00000010  00000-0  59158-5 0  9995
2 43880  97.6953 315.4992 0012768 148.4208 211.7783 14.96727573116725
ZACUBE-2                
1 43907U 18111AH  21045.89053558  .00000514  00000-0  23328-4 0  9992
2 43907  97.2473 304.0675 0021662  11.8240  54.4001 15.24956759118956
MICRODRAGON             
1 43935U 19003D   21045.53959946  .00000803  00000-0  36863-4 0  9990
2 43935  97.1994  92.1644 0019721  99.7567 260.5898 15.22989280115397
AOBA VELOX-IV           
1 43940U 19003J   21045.94340597  .00002314  00000-0  91301-4 0  9994
2 43940  97.1963  94.6023 0024848  85.0544 275.3531 15.26248168115616
M6P                     
1 44109U 19018AF  21045.93474285  .00002214  00000-0  70126-4 0  9990
2 44109  97.4382 122.5732 0058358  70.2519 290.5003 15.32202626104696
SPOOQY-1                
1 44332U 98067QH  21045.67269757  .00025456  00000-0  24528-3 0  9993
2 44332  51.6349 193.8436 0004295 199.1072 160.9764 15.66341515 94798
